NORAD_CAT_ID,OBJECT_NAME,OBJECT_TYPE,EPOCH,MEAN_MOTION,ECCENTRICITY,INCLINATION,RA_OF_ASC_NODE,ARG_OF_PERICENTER,MEAN_ANOMALY,BSTAR,MEAN_MOTION_DOT,MEAN_MOTION_DDOT,TLE_LINE0,TLE_LINE1,TLE_LINE2,SEMIMAJOR_AXIS,PERIOD,APOGEE,PERIGEE,DECAYED
53012.0,STARLINK-4271,PAYLOAD,2023-02-06 10:35:54,15.0884964,0.0001179,53.2164,114.5435,112.365,247.7467,8.5368e-05,1.071e-05,0.0,0 STARLINK-4271,1 53012U 22076AC  23037.44160203  .00001071  00000-0  85368-4 0  9996,2 53012  53.2164 114.5435 0001179 112.3650 247.7467 15.08849640 33146,6917.851,95.437,540.532,538.9,0.0
53012.0,STARLINK-4271,PAYLOAD,2023-02-06 13:46:40,15.08859789,0.0001352,53.2169,113.9495,114.9679,245.1454,4.8679e-05,4.87e-06,0.0,0 STARLINK-4271,1 53012U 22076AC  23037.57407593  .00000487  00000-0  48679-4 0  9990,2 53012  53.2169 113.9495 0001352 114.9679 245.1454 15.08859789 32694,6917.82,95.436,540.62,538.75,0.0
53012.0,STARLINK-4271,PAYLOAD,2023-02-06 15:22:03,15.08854036,0.0001254,53.2171,113.6503,90.517,269.5965,0.00024525,3.619e-05,0.0,0 STARLINK-4271,1 53012U 22076AC  23037.64032251  .00003619  00000-0  24525-3 0  9996,2 53012  53.2171 113.6503 0001254  90.5170 269.5965 15.08854036 32709,6917.837,95.437,540.57,538.835,0.0
53012.0,STARLINK-4271,PAYLOAD,2023-02-07 05:40:32,15.08841568,0.0001273,53.2161,110.9753,95.1972,264.9165,4.1434e-05,3.72e-06,0.0,0 STARLINK-4271,1 53012U 22076AC  23038.23648370  .00000372  00000-0  41434-4 0  9999,2 53012  53.2161 110.9753 0001273  95.1972 264.9165 15.08841568 33266,6917.876,95.437,540.621,538.86,0.0
53012.0,STARLINK-4271,PAYLOAD,2023-02-07 12:02:04,15.08852391,0.0001263,53.2171,109.7866,99.3481,260.7654,0.00022829,3.348e-05,0.0,0 STARLINK-4271,1 53012U 22076AC  23038.50143848  .00003348  00000-0  22829-3 0  9991,2 53012  53.2171 109.7866 0001263  99.3481 260.7654 15.08852391 33306,6917.843,95.437,540.581,538.834,0.0
53012.0,STARLINK-4271,PAYLOAD,2023-02-07 21:34:23,15.08845915,0.0001005,53.2154,108.0015,95.332,264.7786,9.6864e-05,1.254e-05,0.0,0 STARLINK-4271,1 53012U 22076AC  23038.89887897  .00001254  00000-0  96864-4 0  9997,2 53012  53.2154 108.0015 0001005  95.3320 264.7786 15.08845915 33367,6917.862,95.437,540.423,539.032,0.0
53012.0,STARLINK-4271,PAYLOAD,2023-02-08 05:31:19,15.08836364,0.000149,53.2168,106.5156,95.424,264.6922,-4.3723e-05,-9.84e-06,0.0,0 STARLINK-4271,1 53012U 22076AC  23039.23008608 -.00000984  00000-0 -43723-4 0  9998,2 53012  53.2168 106.5156 0001490  95.4240 264.6922 15.08836364 33416,6917.892,95.438,540.787,538.726,0.0
53012.0,STARLINK-4271,PAYLOAD,2023-02-08 11:52:51,15.08844336,0.000156,53.216,105.3264,91.9362,268.1809,2.8442e-05,1.65e-06,0.0,0 STARLINK-4271,1 53012U 22076AC  23039.49504235  .00000165  00000-0  28442-4 0  9993,2 53012  53.2160 105.3264 0001560  91.9362 268.1809 15.08844336 32981,6917.867,95.437,540.811,538.653,0.0
53012.0,STARLINK-4271,PAYLOAD,2023-02-09 05:22:06,15.08832621,0.0001447,53.2162,102.0549,89.3124,270.8034,4.6384e-06,-2.14e-06,0.0,0 STARLINK-4271,1 53012U 22076AC  23040.22368989 -.00000214  00000-0  46384-5 0  9992,2 53012  53.2162 102.0549 0001447  89.3124 270.8034 15.08832621 33563,6917.903,95.438,540.769,538.767,0.0
53012.0,STARLINK-4271,PAYLOAD,2023-02-09 10:08:16,15.08837356,0.0001455,53.2153,101.1614,92.9901,267.1258,8.9442e-05,1.136e-05,0.0,0 STARLINK-4271,1 53012U 22076AC  23040.42240876  .00001136  00000-0  89442-4 0  9992,2 53012  53.2153 101.1614 0001455  92.9901 267.1258 15.08837356 33127,6917.888,95.438,540.76,538.747,0.0
53012.0,STARLINK-4271,PAYLOAD,2023-02-09 21:15:58,15.08840378,0.0001334,53.2136,99.0801,62.0911,298.0216,0.00023073,3.386e-05,0.0,0 STARLINK-4271,1 53012U 22076AC  23040.88609115  .00003386  00000-0  23073-3 0  9993,2 53012  53.2136  99.0801 0001334  62.0911 298.0216 15.08840378 33198,6917.879,95.438,540.667,538.821,0.0
53012.0,STARLINK-4271,PAYLOAD,2023-02-10 03:37:31,15.08836405,0.00015,53.2137,97.8904,67.5822,292.5329,0.0002557,3.783e-05,0.0,0 STARLINK-4271,1 53012U 22076AC  23041.15105519  .00003783  00000-0  25570-3 0  9998,2 53012  53.2137  97.8904 0001500  67.5822 292.5329 15.08836405 33230,6917.891,95.438,540.794,538.719,0.0
53012.0,STARLINK-4271,PAYLOAD,2023-02-10 11:34:26,15.08853647,0.0001504,53.2143,96.402,73.9196,286.1961,0.00046912,7.189e-05,0.0,0 STARLINK-4271,1 53012U 22076AC  23041.48224678  .00007189  00000-0  46912-3 0  9999,2 53012  53.2143  96.4020 0001504  73.9196 286.1961 15.08853647 33755,6917.839,95.437,540.744,538.663,0.0
53012.0,STARLINK-4271,PAYLOAD,2023-02-10 21:06:45,15.08839368,0.000183,53.2141,94.6164,78.0013,282.1184,0.00020446,2.967e-05,0.0,0 STARLINK-4271,1 53012U 22076AC  23041.87969421  .00002967  00000-0  20446-3 0  9997,2 53012  53.2141  94.6164 0001830  78.0013 282.1184 15.08839368 33340,6917.882,95.438,541.013,538.481,0.0
53012.0,STARLINK-4271,PAYLOAD,2023-02-11 01:52:55,15.08838259,0.0001703,53.2129,93.7267,71.0609,289.0568,0.00014968,2.095e-05,0.0,0 STARLINK-4271,1 53012U 22076AC  23042.07841628  .00002095  00000-0  14968-3 0  9992,2 53012  53.2129  93.7267 0001703  71.0609 289.0568 15.08838259 33848,6917.886,95.438,540.929,538.573,0.0
53012.0,STARLINK-4271,PAYLOAD,2023-02-11 08:14:27,15.08836817,0.0001295,53.2149,92.5372,92.2262,267.8878,0.0001215,1.646e-05,0.0,0 STARLINK-4271,1 53012U 22076AC  23042.34337639  .00001646  00000-0  12150-3 0  9996,2 53012  53.2149  92.5372 0001295  92.2262 267.8878 15.08836817 33419,6917.89,95.438,540.651,538.859,0.0
53012.0,STARLINK-4271,PAYLOAD,2023-02-11 09:49:51,15.08836668,0.0001499,53.2146,92.24,77.4628,282.6531,0.00013041,1.788e-05,0.0,0 STARLINK-4271,1 53012U 22076AC  23042.40961806  .00001788  00000-0  13041-3 0  9999,2 53012  53.2146  92.2400 0001499  77.4628 282.6531 15.08836668 33428,6917.891,95.438,540.793,538.719,0.0
53012.0,STARLINK-4271,PAYLOAD,2023-02-12 03:19:05,15.0884179,0.0001431,53.2154,88.9687,86.0211,274.0945,0.00023924,3.522e-05,0.0,0 STARLINK-4271,1 53012U 22076AC  23043.13825749  .00003522  00000-0  23924-3 0  9994,2 53012  53.2154  88.9687 0001431  86.0211 274.0945 15.08841790 34007,6917.875,95.437,540.73,538.75,0.0
53012.0,STARLINK-4271,PAYLOAD,2023-02-12 12:51:24,15.08853048,0.0001566,53.2148,87.1852,82.6005,277.5165,0.00061968,9.591e-05,0.0,0 STARLINK-4271,1 53012U 22076AC  23043.53569560  .00009591  00000-0  61968-3 0  9996,2 53012  53.2148  87.1852 0001566  82.6005 277.5165 15.08853048 33591,6917.841,95.437,540.789,538.622,0.0
53012.0,STARLINK-4271,PAYLOAD,2023-02-13 04:45:15,15.08844552,0.0001422,53.2152,84.2113,92.1057,268.0098,0.00023343,3.429e-05,0.0,0 STARLINK-4271,1 53012U 22076AC  23044.19809842  .00003429  00000-0  23343-3 0  9998,2 53012  53.2152  84.2113 0001422  92.1057 268.0098 15.08844552 34162,6917.866,95.437,540.715,538.748,0.0
53012.0,STARLINK-4271,PAYLOAD,2023-02-13 11:06:48,15.08853822,0.0001385,53.2153,83.0218,100.1095,260.0054,0.0011893,0.00018698,0.0,0 STARLINK-4271,1 53012U 22076AC  23044.46305588  .00018698  00000-0  11893-2 0  9996,2 53012  53.2153  83.0218 0001385 100.1095 260.0054 15.08853822 33732,6917.838,95.437,540.661,538.745,0.0
53012.0,STARLINK-4271,PAYLOAD,2023-02-14 09:22:12,15.08845955,0.000206,53.2156,78.8574,88.8854,271.2374,0.00058647,9.059e-05,0.0,0 STARLINK-4271,1 53012U 22076AC  23045.39041912  .00009059  00000-0  58647-3 0  9997,2 53012  53.2156  78.8574 0002060  88.8854 271.2374 15.08845955 34343,6917.862,95.437,541.152,538.302,0.0
53012.0,STARLINK-4271,PAYLOAD,2023-02-14 10:57:35,15.08838628,0.0001493,53.2153,78.5615,90.638,269.4784,0.00019885,2.878e-05,0.0,0 STARLINK-4271,1 53012U 22076AC  23045.45665918  .00002878  00000-0  19885-3 0  9995,2 53012  53.2153  78.5615 0001493  90.6380 269.4784 15.08838628 33888,6917.885,95.438,540.782,538.717,0.0
53012.0,STARLINK-4271,PAYLOAD,2023-02-14 18:54:31,15.08833559,0.0001445,53.2148,77.0735,96.0416,264.0741,7.5231e-05,9.09e-06,0.0,0 STARLINK-4271,1 53012U 22076AC  23045.78786101  .00000909  00000-0  75231-4 0  9990,2 53012  53.2148  77.0735 0001445  96.0416 264.0741 15.08833559 34407,6917.9,95.438,540.765,538.765,0.0
53012.0,STARLINK-4271,PAYLOAD,2023-02-15 10:48:22,15.08848345,0.000151,53.215,74.1008,97.6909,262.4254,0.00026232,3.89e-05,0.0,0 STARLINK-4271,1 53012U 22076AC  23046.45025793  .00003890  00000-0  26232-3 0  9996,2 53012  53.2150  74.1008 0001510  97.6909 262.4254 15.08848345 34509,6917.855,95.437,540.764,538.675,0.0
53012.0,STARLINK-4271,PAYLOAD,2023-02-15 18:45:17,15.08849895,0.0001536,53.215,72.6132,88.8883,271.2286,0.00027331,4.066e-05,0.0,0 STARLINK-4271,1 53012U 22076AC  23046.78145725  .00004066  00000-0  27331-3 0  9997,2 53012  53.2150  72.6132 0001536  88.8883 271.2286 15.08849895 34088,6917.85,95.437,540.778,538.653,0.0
53012.0,STARLINK-4271,PAYLOAD,2023-02-16 10:39:08,15.08869322,0.000123,53.2142,69.6395,101.7045,258.4085,0.00058846,9.097e-05,0.0,0 STARLINK-4271,1 53012U 22076AC  23047.44384492  .00009097  00000-0  58846-3 0  9991,2 53012  53.2142  69.6395 0001230 101.7045 258.4085 15.08869322 34656,6917.791,95.436,540.507,538.805,0.0
53012.0,STARLINK-4271,PAYLOAD,2023-02-16 18:36:05,15.0883295,0.0002438,53.2157,68.1524,79.1884,280.9383,-5.9861e-05,-1.241e-05,0.0,0 STARLINK-4271,1 53012U 22076AC  23047.77506474 -.00001241  00000-0 -59861-4 0  9997,2 53012  53.2157  68.1524 0002438  79.1884 280.9383 15.08832950 34232,6917.902,95.438,541.454,538.08,0.0
53012.0,STARLINK-4271,PAYLOAD,2023-02-17 13:40:43,15.08835851,0.0001182,53.2145,64.5832,77.7986,282.3139,7.8697e-05,9.65e-06,0.0,0 STARLINK-4271,1 53012U 22076AC  23048.56994215  .00000965  00000-0  78697-4 0  9997,2 53012  53.2145  64.5832 0001182  77.7986 282.3139 15.08835851 34354,6917.893,95.438,540.576,538.94,0.0
53012.0,STARLINK-4271,PAYLOAD,2023-02-17 18:26:52,15.0882829,5.89e-05,53.2177,63.6919,54.0578,306.0469,7.1013e-05,8.42e-06,0.0,0 STARLINK-4271,1 53012U 22076AC  23048.76866383  .00000842  00000-0  71013-4 0  9992,2 53012  53.2177  63.6919 0000589  54.0578 306.0469 15.08828290 34382,6917.916,95.438,540.189,539.374,0.0
